OPTICUBE 04             
1 41851U 16067D   24346.07272037  .00005247  00000+0  37086-3 0  9990
2 41851  98.0853 158.9035 0017151 178.2897 181.8390 15.05251831441822
AEROCUBE 8D             
1 41852U 16067E   24346.47237653  .00011796  00000+0  67181-3 0  9995
2 41852  98.1102 166.0811 0003725 225.0605 135.0322 15.12990554442156
AEROCUBE 8C             
1 41853U 16067F   24346.48765769  .00011796  00000+0  67077-3 0  9995
2 41853  98.0931 164.2556 0007129 152.0391 208.1222 15.13030291442149
PROMETHEUS 2-1          
1 41854U 16067G   24346.49013879  .00036675  00000+0  12636-2 0  9998
2 41854  98.0927 175.3324 0008851 162.5770 197.5774 15.29896235442712
PROMETHEUS 2-3          
1 41855U 16067H   24346.49370557  .00036783  00000+0  12710-2 0  9991
2 41855  98.0867 174.6536 0007348 173.6518 186.4815 15.29813279442716
CORVUS BC2              
1 42846U 17042X   24346.48554671  .00006343  00000+0  50597-3 0  9991
2 42846  97.3674 162.0829 0011200 176.2301 183.9010 15.00583056404007
CORVUS BC1              
1 42847U 17042Y   24346.49549773  .00006608  00000+0  52504-3 0  9994
2 42847  97.3673 162.5066 0010442 150.7291 209.4521 15.00727737404026
MIRATA                  
1 43015U 17073C   24346.60273757  .00048216  00000+0  15563-2 0  9999
2 43015  97.5674 230.7757 0131948   9.2713 351.0914 15.23863105383182
MAKERSAT 0              
1 43016U 17073D   24346.61917001  .00022043  00000+0  10555-2 0  9994
2 43016  97.5451 221.2904 0171280  40.1286 321.2445 15.06861797382551
SIRION PATHFINDER-2     
1 43759U 18099B   24346.60799697  .00008064  00000+0  54709-3 0  9992
2 43759  97.5076  37.9682 0011612  49.5216 310.7022 15.06627051329188
CORVUS BC4              
1 43767U 18099K   24346.41290140  .00007714  00000+0  53982-3 0  9992
2 43767  97.4902  34.3800 0011177  99.4634 260.7856 15.05483877329028
MOVE-II                 
1 43780U 18099Y   24346.17313156  .00047380  00000+0  14786-2 0  9994
2 43780  97.4968  49.1318 0005113  79.6361 280.5457 15.33047234329866
SPACEBEE-7              
1 43816U 18099BL  24346.14238670  .00027547  00000+0  11911-2 0  9998
2 43816  97.5255  48.6526 0008315  38.1831 321.9992 15.22396472329223
SPACEBEE-6              
1 43818U 18099BN  24346.46009732  .00286369  00000+0  27125-2 0  9993
2 43818  97.5098  59.8561 0004884 327.8596  32.2365 15.66034554330143
SHIELDS 1               
1 43850U 18104B   24346.54481935  .00026519  00000+0  51165-3 0  9995
2 43850  85.0192 161.9585 0010215 112.1514 248.0827 15.47626168333495
SONATE                  
1 44400U 19038Q   24346.50032152  .00052250  00000+0  92151-3 0  9994
2 44400  97.7126 350.3886 0011328 175.7806 184.3542 15.50168801301385
LUCKY-7                 
1 44406U 19038W   24346.51919267  .01286795  10707-2  14577-2 0  9999
2 44406  97.6831 359.9558 0005793 152.6273 207.5315 16.09469439302030
DUCHIFAT-3              
1 44854U 19089C   24346.51009234  .00034068  00000+0  11976-2 0  9991
2 44854  36.9513  43.9568 0010993 148.0813 212.0606 15.28437181275298
M2 PATHFINDER           
1 45727U 20037E   24346.49301600  .00005846  00000+0  47707-3 0  9999
2 45727  97.7763 162.4083 0011013 240.8460 119.1661 14.99777555242495
NETSAT-4                
1 46504U 20068U   24346.48642608  .00017559  00000+0  76059-3 0  9998
2 46504  97.8264 309.4719 0011237 103.4129 256.8360 15.22411397231072
NETSAT-3                
1 46505U 20068V   24346.41125594  .00016623  00000+0  73666-3 0  9994
2 46505  97.8249 308.6773 0010369 111.4140 248.8202 15.21654856231045
NETSAT-1                
1 46506U 20068W   24346.45954036  .00013699  00000+0  66437-3 0  9998
2 46506  97.8273 307.6247 0009032 121.0752 239.1368 15.18598751230973
NETSAT-2                
1 46507U 20068X   24346.44442790  .00018180  00000+0  79119-3 0  9998
2 46507  97.8255 309.0070 0008280 121.9163 238.2878 15.22270150231010
WILDTRACKCUBE-SIMBA     
1 47941U 21022K   24346.56074548  .00027464  00000+0  88880-3 0  9997
2 47941  97.4408 242.6699 0009846 234.6087 125.4235 15.31970794205515
GRBALPHA                
1 47959U 21022AD  24346.59862624  .00051461  00000+0  11618-2 0  9997
2 47959  97.4402 246.3992 0007100 208.9236 151.1619 15.43019216204580
BEESAT-8                
1 48085U 21022AP  24345.54962141  .00205977  00000+0  22078-2 0  9992
2 48085  97.4725 252.1241 0005893 139.3805 220.7893 15.63137535205076
LEDSAT                  
1 49069U 21073D   24346.45385406  .00037571  00000+0  99826-3 0  9994
2 49069  97.4168  57.6270 0014690  16.4668 343.7051 15.38057018183567
ROBUSTA-1F (MTCUBE 2)   
1 53109U 22080E   24346.36412725 -.00000003  00000+0  00000+0 0  9991
2 53109  70.1183 130.5154 0008376  49.9704 310.1690  6.42584155 56546
SITRO-AIS 5 (KATYS)     
1 57176U 23091L   24346.56725199  .00014071  00000+0  77037-3 0  9993
2 57176  97.5891  37.6423 0014834 231.0367 128.9543 15.14253135 80284
SITRO-AIS 6 (CHIRKIN)   
1 57192U 23091AC  24346.48168097  .00013919  00000+0  76195-3 0  9994
2 57192  97.5892  37.5876 0014578 230.5255 129.4688 15.14262603 80274
SITRO-AIS 8 (ANOKHIN)   
1 57193U 23091AD  24346.58780288  .00013834  00000+0  74085-3 0  9990
2 57193  97.5885  37.8958 0014296 230.8708 129.1254 15.15050266 80305
SITRO-AIS 7 (FARTUSHNIY)
1 57194U 23091AE  24346.56054922  .00014005  00000+0  76868-3 0  9990
2 57194  97.5890  37.6276 0014553 231.2909 128.7022 15.14167688 80288
SITRO-AIS 10 (BURDAEV)  
1 57199U 23091AK  24346.58119762  .00016465  00000+0  82322-3 0  9995
2 57199  97.5900  39.3852 0010091 215.0795 144.9775 15.17476842 80395
SITRO-AIS 9 (SHCHUKIN)  
1 57201U 23091AM  24346.58374291  .00016108  00000+0  80710-3 0  9992
2 57201  97.5895  39.3475 0010055 215.1375 144.9196 15.17405361 80393
SITRO-AIS 12 (SMIRENNIY)
1 57204U 23091AQ  24346.58934498  .00015777  00000+0  78620-3 0  9994
2 57204  97.5905  39.5579 0010086 208.6932 151.3748 15.17603422 80400
SITRO-AIS 11 (SHEFFER)  
1 57208U 23091AU  24346.56169258  .00016107  00000+0  79934-3 0  9997
2 57208  97.5904  39.5787 0009908 208.8637 151.2049 15.17743886 80401
VERONIKA                
1 58261U 23174F   24346.47090325  .00044063  00000+0  12325-2 0  9999
2 58261  97.4415  61.0731 0008651 336.8789  23.2064 15.36497828 60776
ROBUSTA-1E (ENSO)       
1 58470U 23185J   24346.61074622  .00035744  00000+0  10212-2 0  9990
2 58470  97.4039  52.6053 0009902  14.4705 345.6821 15.35870427 57249
SITRO-AIS 29            
1 59052U 24039B   24346.55143871  .00062978  00000+0  12409-2 0  9991
2 59052  97.4081 309.3123 0008567 320.4297  39.6326 15.46966843 43813
SITRO-AIS 30            
1 59053U 24039C   24346.57750482  .00062404  00000+0  12510-2 0  9993
2 59053  97.4084 309.2714 0009052 320.9257  39.1337 15.46462095 43809
SITRO-AIS 31            
1 59054U 24039D   24346.60761948  .00061443  00000+0  12142-2 0  9990
2 59054  97.4079 309.3844 0008797 320.9778  39.0836 15.46886122 43839
SITRO-AIS 33            
1 59055U 24039E   24346.58565564  .00061329  00000+0  12066-2 0  9992
2 59055  97.4084 309.4262 0008422 322.5386  37.5275 15.47018753 43826
SITRO-AIS 35            
1 59056U 24039F   24346.57940483  .00064513  00000+0  12663-2 0  9990
2 59056  97.4084 309.4289 0008418 323.8399  36.2280 15.47072348 43821
SITRO-AIS 32            
1 59057U 24039G   24346.60909068  .00060197  00000+0  11976-2 0  9999
2 59057  97.4086 309.3970 0008660 322.7466  37.3182 15.46697483 43827
SITRO-AIS 34            
1 59058U 24039H   24346.58512038  .00063046  00000+0  12409-2 0  9992
2 59058  97.4084 309.4288 0008401 322.5830  37.4834 15.46999548 43827
SITRO-AIS 36            
1 59059U 24039J   24346.56431754  .00061243  00000+0  11994-2 0  9991
2 59059  97.4080 309.4507 0008249 324.0838  35.9857 15.47153804 43829
SITRO-AIS 49            
1 59060U 24039K   24346.58205104  .00061091  00000+0  12119-2 0  9994
2 59060  97.4089 309.4307 0008460 322.8239  37.2424 15.46778942 43824
SITRO-AIS 50            
1 59061U 24039L   24346.59930099  .00062404  00000+0  12081-2 0  9991
2 59061  97.4079 309.5542 0008074 323.0094  37.0599 15.47485465 43837
SITRO-AIS 51            
1 59062U 24039M   24346.59685144  .00064264  00000+0  12389-2 0  9997
2 59062  97.4077 309.5550 0007920 324.0672  36.0045 15.47600096 43831
SITRO-AIS 52            
1 59063U 24039N   24346.57848595  .00063940  00000+0  12299-2 0  9997
2 59063  97.4084 309.5848 0007905 323.5584  36.5127 15.47666303 43838
SITRO-AIS 25            
1 59066U 24039R   24346.62651248  .00005607  00000+0  49805-3 0  9993
2 59066  95.3870 217.6926 0164840  91.0739 270.9373 14.86410928 42432
SITRO-AIS 26            
1 59067U 24039S   24346.63519768  .00005862  00000+0  52207-3 0  9998
2 59067  95.3869 217.6842 0165014  91.1304 270.8827 14.86280841 42433
SITRO-AIS 27            
1 59068U 24039T   24346.60003748  .00006697  00000+0  59259-3 0  9993
2 59068  95.3872 217.7229 0164451  90.8809 271.1258 14.86559318 42438
SITRO-AIS 28            
1 59071U 24039U   24346.59202204  .00006351  00000+0  56178-3 0  9997
2 59071  95.3872 217.7332 0164260  90.8661 271.1384 14.86601987 42431
GRBBETA                 
1 60237U 24128C   24346.30671430  .00007488  00000+0  61260-3 0  9992
2 60237  61.9942 346.8041 0030910  12.5769 347.6084 14.99753272 23130
OOV-CUBE (TUBSAT-30)    
1 60240U 24128F   24346.40214192  .00005270  00000+0  45276-3 0  9991
2 60240  61.9982 347.3153 0028948   8.0178 352.1367 14.98346804 23144
ROBUSTA-3A (MEDITERRAN*)
1 60243U 24128J   24346.42620542  .00011761  00000+0  94483-3 0  9992
2 60243  61.9913 346.7649 0029243   2.3189 357.8031 15.00087517 23150
